NORAD_CAT_ID,OBJECT_NAME,OBJECT_TYPE,EPOCH,MEAN_MOTION,ECCENTRICITY,INCLINATION,RA_OF_ASC_NODE,ARG_OF_PERICENTER,MEAN_ANOMALY,BSTAR,MEAN_MOTION_DOT,MEAN_MOTION_DDOT,TLE_LINE0,TLE_LINE1,TLE_LINE2,SEMIMAJOR_AXIS,PERIOD,APOGEE,PERIGEE,DECAYED
52309.0,STARLINK-3756,PAYLOAD,2022-11-14 21:36:38,15.088419,0.0001945,53.2172,124.5668,44.0535,316.0612,4.3268e-05,4.01e-06,0.0,0 STARLINK-3756,1 52309U 22041BA  22318.90044728  .00000401  00000-0  43268-4 0  9990,2 52309  53.2172 124.5668 0001945  44.0535 316.0612 15.08841900 33071,6917.875,95.437,541.085,538.394,0.0
52309.0,STARLINK-3756,PAYLOAD,2022-11-15 11:55:07,15.08837251,0.0001915,53.2173,121.8905,44.5406,315.5739,2.2875e-05,7.6e-07,0.0,0 STARLINK-3756,1 52309U 22041BA  22319.49660990  .00000076  00000-0  22875-4 0  9999,2 52309  53.2173 121.8905 0001915  44.5406 315.5739 15.08837251 33163,6917.889,95.438,541.0790000000002,538.429,0.0
52309.0,STARLINK-3756,PAYLOAD,2022-11-15 18:16:40,15.08831083,0.0001947,53.2174,120.7012,44.1661,315.9487,4.5907e-05,4.42e-06,0.0,0 STARLINK-3756,1 52309U 22041BA  22319.76157465  .00000442  00000-0  45907-4 0  9995,2 52309  53.2174 120.7012 0001947  44.1661 315.9487 15.08831083 33201,6917.908,95.438,541.12,538.4259999999998,0.0
52309.0,STARLINK-3756,PAYLOAD,2022-11-16 11:45:55,15.08822992,0.0002034,53.2177,117.4302,44.6005,315.5151,-6.004800000000001e-05,-1.243e-05,0.0,0 STARLINK-3756,1 52309U 22041BA  22320.49022715 -.00001243  00000-0 -60048-4 0  9991,2 52309  53.2177 117.4302 0002034  44.6005 315.5151 15.08822992 33319,6917.932,95.439,541.2040000000002,538.39,0.0
52309.0,STARLINK-3756,PAYLOAD,2022-11-16 18:07:28,15.08823566,0.0002034,53.2185,116.241,50.3289,309.7883,-6.737e-05,-1.36e-05,0.0,0 STARLINK-3756,1 52309U 22041BA  22320.75518949 -.00001360  00000-0 -67370-4 0  9994,2 52309  53.2185 116.2410 0002034  50.3289 309.7883 15.08823566 33352,6917.931,95.439,541.203,538.389,0.0
52309.0,STARLINK-3756,PAYLOAD,2022-11-17 10:01:19,15.08831017,0.0001975,53.2182,113.2672,42.4909,317.6236,-4.4595e-05,-9.98e-06,0.0,0 STARLINK-3756,1 52309U 22041BA  22321.41758846 -.00000998  00000-0 -44595-4 0  9990,2 52309  53.2182 113.2672 0001975  42.4909 317.6236 15.08831017 33451,6917.908,95.438,541.139,538.4069999999998,0.0
52309.0,STARLINK-3756,PAYLOAD,2022-11-17 11:36:42,15.08834094,0.0002049,53.2179,112.9701,42.7361,317.3791,-1.5450999999999998e-05,-5.34e-06,0.0,0 STARLINK-3756,1 52309U 22041BA  22321.48382609 -.00000534  00000-0 -15451-4 0  9992,2 52309  53.2179 112.9701 0002049  42.7361 317.3791 15.08834094 33466,6917.898,95.438,541.181,538.346,0.0
52309.0,STARLINK-3756,PAYLOAD,2022-11-17 14:47:29,15.08824041,0.0001853,53.218,112.3757,40.0442,320.0687,7.4967e-05,9.05e-06,0.0,0 STARLINK-3756,1 52309U 22041BA  22321.61631028  .00000905  00000-0  74967-4 0  9996,2 52309  53.2180 112.3757 0001853  40.0442 320.0687 15.08824041 33484,6917.929,95.439,541.076,538.512,0.0
52309.0,STARLINK-3756,PAYLOAD,2022-11-18 09:52:06,15.08829301,0.0001927,53.2178,108.8068,41.395,318.7188,0.00015625,2.199e-05,0.0,0 STARLINK-3756,1 52309U 22041BA  22322.41118897  .00002199  00000-0  15625-3 0  9991,2 52309  53.2178 108.8068 0001927  41.3950 318.7188 15.08829301 33604,6917.913000000001,95.438,541.111,538.445,0.0
52309.0,STARLINK-3756,PAYLOAD,2022-11-18 16:13:39,15.08834695,0.0001942,53.2177,107.6174,41.8158,318.2982,0.00019123,2.756e-05,0.0,0 STARLINK-3756,1 52309U 22041BA  22322.67614673  .00002756  00000-0  19123-3 0  9998,2 52309  53.2177 107.6174 0001942  41.8158 318.2982 15.08834695 33643,6917.897,95.438,541.105,538.418,0.0
52309.0,STARLINK-3756,PAYLOAD,2022-11-19 09:42:52,15.08848557,0.0001987,53.2179,104.3465,42.1733,317.9412,0.00019146,2.761e-05,0.0,0 STARLINK-3756,1 52309U 22041BA  22323.40477874  .00002761  00000-0  19146-3 0  9991,2 52309  53.2179 104.3465 0001987  42.1733 317.9412 15.08848557 33752,6917.854,95.437,541.094,538.345,0.0
52309.0,STARLINK-3756,PAYLOAD,2022-11-19 16:04:24,15.08852858,0.0001988,53.2178,103.157,42.5536,317.561,0.00021506,3.137e-05,0.0,0 STARLINK-3756,1 52309U 22041BA  22323.66973373  .00003137  00000-0  21506-3 0  9995,2 52309  53.2178 103.1570 0001988  42.5536 317.5610 15.08852858 33790,6917.840999999999,95.437,541.081,538.331,0.0
52309.0,STARLINK-3756,PAYLOAD,2022-11-20 09:33:40,15.08845802,0.0002078,53.2183,99.8866,56.61,303.509,3.4591e-05,2.62e-06,0.0,0 STARLINK-3756,1 52309U 22041BA  22324.39838225  .00000262  00000-0  34591-4 0  9997,2 52309  53.2183  99.8866 0002078  56.6100 303.5090 15.08845802 33900,6917.863,95.437,541.165,538.29,0.0
52309.0,STARLINK-3756,PAYLOAD,2022-11-20 12:44:26,15.08838268,0.0002006,53.2181,99.2913,46.1023,314.0135,-1.5229e-05,-5.31e-06,0.0,0 STARLINK-3756,1 52309U 22041BA  22324.53086789 -.00000531  00000-0 -15229-4 0  9991,2 52309  53.2181  99.2913 0002006  46.1023 314.0135 15.08838268 33921,6917.886,95.438,541.138,538.363,0.0
52309.0,STARLINK-3756,PAYLOAD,2022-11-20 15:55:13,15.0883637,0.0002048,53.2177,98.697,41.2656,318.8491,-2.2572e-05,-6.47e-06,0.0,0 STARLINK-3756,1 52309U 22041BA  22324.66334911 -.00000647  00000-0 -22572-4 0  9995,2 52309  53.2177  98.6970 0002048  41.2656 318.8491 15.08836370 33947,6917.891,95.438,541.173,538.34,0.0
52309.0,STARLINK-3756,PAYLOAD,2022-11-21 09:24:27,15.08847713,0.0002091,53.2182,95.426,41.4166,318.6984,-2.9336e-05,-7.55e-06,0.0,0 STARLINK-3756,1 52309U 22041BA  22325.39198048 -.00000755  00000-0 -29336-4 0  9990,2 52309  53.2182  95.4260 0002091  41.4166 318.6984 15.08847713 34057,6917.857,95.437,541.168,538.275,0.0
52309.0,STARLINK-3756,PAYLOAD,2022-11-21 14:10:36,15.08852117,0.000211,53.2176,94.5333,44.4902,315.626,-1.445e-05,-5.18e-06,0.0,0 STARLINK-3756,1 52309U 22041BA  22325.59069610 -.00000518  00000-0 -14450-4 0  9992,2 52309  53.2176  94.5333 0002110  44.4902 315.6260 15.08852117 34085,6917.843000000003,95.437,541.168,538.249,0.0
52309.0,STARLINK-3756,PAYLOAD,2022-11-22 01:18:17,15.08864764,0.0002079,53.2177,92.4521,45.9535,314.1628,-0.00018281,-3.199e-05,0.0,0 STARLINK-3756,1 52309U 22041BA  22326.05436884 -.00003199  00000-0 -18281-3 0  9998,2 52309  53.2177  92.4521 0002079  45.9535 314.1628 15.08864764 34155,6917.805,95.436,541.1080000000002,538.231,0.0
52309.0,STARLINK-3756,PAYLOAD,2022-11-22 07:39:51,15.08836343,0.0002136,53.2174,91.2626,42.9034,317.2124,9.3684e-05,1.203e-05,0.0,0 STARLINK-3756,1 52309U 22041BA  22326.31934087  .00001203  00000-0  93684-4 0  9998,2 52309  53.2174  91.2626 0002136  42.9034 317.2124 15.08836343 34191,6917.892,95.438,541.234,538.279,0.0
52309.0,STARLINK-3756,PAYLOAD,2022-11-22 14:01:23,15.08838414,0.0002141,53.2179,90.0736,43.0904,317.0256,0.00010328,1.356e-05,0.0,0 STARLINK-3756,1 52309U 22041BA  22326.58429983  .00001356  00000-0  10328-3 0  9993,2 52309  53.2179  90.0736 0002141  43.0904 317.0256 15.08838414 34239,6917.885,95.438,541.231,538.269,0.0
52309.0,STARLINK-3756,PAYLOAD,2022-11-22 15:36:46,15.08840233,0.0002101,53.2187,89.7769,45.5136,314.6027,0.00011733,1.58e-05,0.0,0 STARLINK-3756,1 52309U 22041BA  22326.65053823  .00001580  00000-0  11733-3 0  9997,2 52309  53.2187  89.7769 0002101  45.5136 314.6027 15.08840233 34241,6917.88,95.438,541.198,538.2909999999998,0.0
52309.0,STARLINK-3756,PAYLOAD,2022-11-23 09:06:01,15.08842716,0.0002096,53.2188,86.5055,47.6784,312.4386,2.2277e-05,6.6e-07,0.0,0 STARLINK-3756,1 52309U 22041BA  22327.37917852  .00000066  00000-0  22277-4 0  9992,2 52309  53.2188  86.5055 0002096  47.6784 312.4386 15.08842716 34354,6917.871999999999,95.437,541.187,538.2869999999998,0.0
52309.0,STARLINK-3756,PAYLOAD,2022-11-24 00:59:52,15.08834533,0.0002168,53.2179,83.5312,40.494,319.6213,-5.833300000000001e-06,-3.81e-06,0.0,0 STARLINK-3756,1 52309U 22041BA  22328.04158463 -.00000381  00000-0 -58333-5 0  9997,2 52309  53.2179  83.5312 0002168  40.4940 319.6213 15.08834533 34459,6917.897,95.438,541.262,538.262,0.0
52309.0,STARLINK-3756,PAYLOAD,2022-11-24 07:21:25,15.088374900000002,0.0002194,53.2183,82.3417,41.04,319.0757,-3.1379e-05,-7.88e-06,0.0,0 STARLINK-3756,1 52309U 22041BA  22328.30654488 -.00000788  00000-0 -31379-4 0  9995,2 52309  53.2183  82.3417 0002194  41.0400 319.0757 15.08837490 34490,6917.888000000001,95.438,541.271,538.235,0.0
52309.0,STARLINK-3756,PAYLOAD,2022-11-24 13:42:57,15.08840034,0.000223,53.2184,81.1524,41.9921,318.1242,-6.5412e-06,-3.92e-06,0.0,0 STARLINK-3756,1 52309U 22041BA  22328.57150257 -.00000392  00000-0 -65412-5 0  9996,2 52309  53.2184  81.1524 0002230  41.9921 318.1242 15.08840034 34537,6917.88,95.438,541.288,538.203,0.0
52309.0,STARLINK-3756,PAYLOAD,2022-11-25 00:50:39,15.0884521,0.0002298,53.2191,79.0711,43.4475,316.6698,4.2665e-05,3.91e-06,0.0,0 STARLINK-3756,1 52309U 22041BA  22329.03517701  .00000391  00000-0  42665-4 0  9990,2 52309  53.2191  79.0711 0002298  43.4475 316.6698 15.08845210 34601,6917.864000000001,95.437,541.319,538.14,0.0
52309.0,STARLINK-3756,PAYLOAD,2022-11-25 13:33:44,15.08833028,0.0002368,53.2189,76.6922,44.7528,315.3655,0.00020467,2.97e-05,0.0,0 STARLINK-3756,1 52309U 22041BA  22329.56509952  .00002970  00000-0  20467-3 0  9997,2 52309  53.2189  76.6922 0002368  44.7528 315.3655 15.08833028 34687,6917.901999999999,95.438,541.405,538.129,0.0
52309.0,STARLINK-3756,PAYLOAD,2022-11-26 13:24:31,15.08842469,0.0002282,53.2188,72.2316,43.0935,317.0235,9.6327e-05,1.245e-05,0.0,0 STARLINK-3756,1 52309U 22041BA  22330.55869489  .00001245  00000-0  96327-4 0  9995,2 52309  53.2188  72.2316 0002282  43.0935 317.0235 15.08842469 34833,6917.873000000001,95.437,541.317,538.159,0.0
52309.0,STARLINK-3756,PAYLOAD,2022-11-26 16:35:17,15.08844815,0.0002179,53.2192,71.6357,43.1468,316.9695,3.0828000000000004e-05,2.02e-06,0.0,0 STARLINK-3756,1 52309U 22041BA  22330.69117472  .00000202  00000-0  30828-4 0  9994,2 52309  53.2192  71.6357 0002179  43.1468 316.9695 15.08844815 34850,6917.866,95.437,541.238,538.2230000000002,0.0
